<?xml version="1.0" encoding="UTF-8"?>
<kml xmlns="http://www.opengis.net/kml/2.2" xmlns:gx="http://www.google.com/kml/ext/2.2" xmlns:kml="http://www.opengis.net/kml/2.2" xmlns:atom="http://www.w3.org/2005/Atom">
<Document>
	<name>Aracati - Canoa via beirada.kml</name>
	<StyleMap id="m_ylw-pushpin">
		<Pair>
			<key>normal</key>
			<styleUrl>#s_ylw-pushpin</styleUrl>
		</Pair>
		<Pair>
			<key>highlight</key>
			<styleUrl>#s_ylw-pushpin_hl</styleUrl>
		</Pair>
	</StyleMap>
	<Style id="s_ylw-pushpin">
		<IconStyle>
			<scale>1.1</scale>
			<Icon>
				<href>http://maps.google.com/mapfiles/kml/pushpin/ylw-pushpin.png</href>
			</Icon>
			<hotSpot x="20" y="2" xunits="pixels" yunits="pixels"/>
		</IconStyle>
		<LineStyle>
			<color>ff0000ff</color>
			<width>8</width>
		</LineStyle>
	</Style>
	<Style id="s_ylw-pushpin_hl">
		<IconStyle>
			<scale>1.3</scale>
			<Icon>
				<href>http://maps.google.com/mapfiles/kml/pushpin/ylw-pushpin.png</href>
			</Icon>
			<hotSpot x="20" y="2" xunits="pixels" yunits="pixels"/>
		</IconStyle>
		<LineStyle>
			<color>ff0000ff</color>
			<width>8</width>
		</LineStyle>
	</Style>
	<Placemark>
		<name>Aracati - Canoa via beirada</name>
		<styleUrl>#m_ylw-pushpin</styleUrl>
		<LineString>
			<tessellate>1</tessellate>
			<coordinates>
				-37.78350601946579,-4.577481502777339,0 -37.77609684147561,-4.566787982869923,0 -37.77572971831027,-4.566209483217668,0 -37.77558583832953,-4.565285971280599,0 -37.77435357660941,-4.56108483358599,0 -37.77418087539584,-4.559003865450227,0 -37.77410055083264,-4.557416087932647,0 -37.77318586383844,-4.552035308415432,0 -37.77306778879451,-4.5516352901526,0 -37.77288574364972,-4.551344118737879,0 -37.77256550127952,-4.551192618731433,0 -37.77152953502046,-4.551000390577523,0 -37.76707858813264,-4.550307126072161,0 -37.76660248725611,-4.550290111633519,0 -37.76601705384561,-4.550426850548838,0 -37.76179368287936,-4.551823277055552,0 -37.75575566159123,-4.553799944907526,0 -37.75345623638911,-4.550436903127211,0 -37.74888756450495,-4.54523668402721,0 -37.74642327271928,-4.543227564866749,0 -37.74591752886437,-4.542394991550232,0 -37.74110200981164,-4.532916952300132,0 -37.7409340764795,-4.53201675081126,0 -37.74038290504105,-4.53034583012227,0 -37.73950293647575,-4.527687344366217,0 -37.7389810309481,-4.525661777590545,0 -37.73857060365376,-4.525176055486556,0 -37.7367142610281,-4.524755565583353,0 -37.73551581730734,-4.524868767348496,0 -37.73400827371599,-4.524148278667547,0 -37.73384873342264,-4.524363169372838,0 -37.733470503652,-4.524583374756403,0 -37.73314395357107,-4.524595581426651,0 -37.73306437853952,-4.524790620882839,0 -37.73293546323744,-4.526183488223694,0 -37.73305330787917,-4.526616675337914,0 -37.73307889085705,-4.527006822853843,0 -37.73291909587957,-4.527461012090956,0 -37.7334429385224,-4.528611694190681,0 -37.73363247907881,-4.52979162345816,0 -37.71870664437196,-4.526327754507408,0 -37.71772885497455,-4.526418497385573,0 -37.71625081073093,-4.526223912191266,0 -37.71511970034313,-4.525449727678818,0 -37.71399109276981,-4.523099098742398,0 -37.71276176584362,-4.523425768514677,0 -37.71077837410134,-4.524175297717395,0 -37.70745641005306,-4.52527453315891,0 -37.70732114999487,-4.524405741506655,0 -37.70551461012999,-4.524785842322268,0 -37.70565172906974,-4.525844511347343,0 
			</coordinates>
		</LineString>
		<atom:link rel="app" href="https://www.google.com/earth/about/versions/#earth-pro" title="Google Earth Pro 7.3.6.10441"></atom:link>
	</Placemark>
</Document>
</kml>
